NORAD_CAT_ID,OBJECT_NAME,OBJECT_TYPE,EPOCH,MEAN_MOTION,ECCENTRICITY,INCLINATION,RA_OF_ASC_NODE,ARG_OF_PERICENTER,MEAN_ANOMALY,BSTAR,MEAN_MOTION_DOT,MEAN_MOTION_DDOT,TLE_LINE0,TLE_LINE1,TLE_LINE2,SEMIMAJOR_AXIS,PERIOD,APOGEE,PERIGEE,DECAYED
51995.0,STARLINK-3636,PAYLOAD,2022-10-14 11:25:24,15.08845385,0.0001476999999999,53.217,195.6316,67.6752,292.4397,0.00017194,2.45e-05,0.0,0 STARLINK-3636,1 51995U 22025AR  22287.47597563  .00002450  00000-0  17194-3 0  9993,2 51995  53.2170 195.6316 0001477  67.6752 292.4397 15.08845385 34899,6917.864000000001,95.437,540.751,538.707,0.0
51995.0,STARLINK-3636,PAYLOAD,2022-10-15 00:08:29,15.08844351,0.0001533,53.2174,193.2519,70.1546,289.9612,0.00010186,1.334e-05,0.0,0 STARLINK-3636,1 51995U 22025AR  22288.00589638  .00001334  00000-0  10186-3 0  9991,2 51995  53.2174 193.2519 0001533  70.1546 289.9612 15.08844351 33459,6917.8669999999975,95.437,540.793,538.672,0.0
51995.0,STARLINK-3636,PAYLOAD,2022-10-15 17:37:43,15.08847547,0.000153,53.2182,189.9812,70.2845,289.8312,8.649200000000001e-05,1.089e-05,0.0,0 STARLINK-3636,1 51995U 22025AR  22288.73453152  .00001089  00000-0  86492-4 0  9993,2 51995  53.2182 189.9812 0001530  70.2845 289.8312 15.08847547 35083,6917.857,95.437,540.781,538.664,0.0
51995.0,STARLINK-3636,PAYLOAD,2022-10-16 03:10:03,15.08808254,0.0001716,53.2182,188.1986,65.8814,294.2357,0.00038116,5.778e-05,0.0,0 STARLINK-3636,1 51995U 22025AR  22289.13198363  .00005778  00000-0  38116-3 0  9996,2 51995  53.2182 188.1986 0001716  65.8814 294.2357 15.08808254 35146,6917.977,95.44,541.03,538.655,0.0
51995.0,STARLINK-3636,PAYLOAD,2022-10-16 17:28:31,15.08836004,0.0001448,53.2178,185.5217,63.9998,296.1143,-7.1479e-05,-1.425e-05,0.0,0 STARLINK-3636,1 51995U 22025AR  22289.72814216 -.00001425  00000-0 -71479-4 0  9990,2 51995  53.2178 185.5217 0001448  63.9998 296.1143 15.08836004 33712,6917.893,95.438,540.759,538.756,0.0
51995.0,STARLINK-3636,PAYLOAD,2022-10-17 03:00:50,15.08839748,0.0001431,53.2176,183.7375,63.5512,296.5627,-4.6591e-05,-1.029e-05,0.0,0 STARLINK-3636,1 51995U 22025AR  22290.12557902 -.00001029  00000-0 -46591-4 0  9999,2 51995  53.2176 183.7375 0001431  63.5512 296.5627 15.08839748 33770,6917.880999999999,95.438,540.736,538.756,0.0
51995.0,STARLINK-3636,PAYLOAD,2022-10-17 15:43:55,15.08830971,0.0001406,53.2169,181.3579,62.3506,297.7629,3.4696e-05,2.64e-06,0.0,0 STARLINK-3636,1 51995U 22025AR  22290.65550039  .00000264  00000-0  34696-4 0  9992,2 51995  53.2169 181.3579 0001406  62.3506 297.7629 15.08830971 33857,6917.908,95.438,540.746,538.8,0.0
51995.0,STARLINK-3636,PAYLOAD,2022-10-17 23:40:50,15.08833254,0.0001439,53.2166,179.8706,62.5805,297.5334,4.9082e-05,4.93e-06,0.0,0 STARLINK-3636,1 51995U 22025AR  22290.98670025  .00000493  00000-0  49082-4 0  9995,2 51995  53.2166 179.8706 0001439  62.5805 297.5334 15.08833254 33902,6917.901,95.438,540.761,538.771,0.0
51995.0,STARLINK-3636,PAYLOAD,2022-10-18 18:45:30,15.08826304,0.000154,53.2163,176.3037,64.7118,295.4034,-0.00010042,-1.885e-05,0.0,0 STARLINK-3636,1 51995U 22025AR  22291.78159753 -.00001885  00000-0 -10042-3 0  9995,2 51995  53.2163 176.3037 0001540  64.7118 295.4034 15.08826304 35546,6917.922,95.438,540.8530000000002,538.722,0.0
51995.0,STARLINK-3636,PAYLOAD,2022-10-18 23:31:39,15.08829259,0.0001521999999999,53.2164,175.4115,62.8488,297.2659,-7.260800000000001e-05,-1.443e-05,0.0,0 STARLINK-3636,1 51995U 22025AR  22291.98031612 -.00001443  00000-0 -72608-4 0  9997,2 51995  53.2164 175.4115 0001522  62.8488 297.2659 15.08829259 34053,6917.913000000001,95.438,540.831,538.725,0.0
51995.0,STARLINK-3636,PAYLOAD,2022-10-19 15:25:30,15.08836126,0.0001638,53.2162,172.4373,65.8643,294.252,5.355800000000001e-05,5.64e-06,0.0,0 STARLINK-3636,1 51995U 22025AR  22292.64271136  .00000564  00000-0  53558-4 0  9992,2 51995  53.2162 172.4373 0001638  65.8643 294.2520 15.08836126 35672,6917.892,95.438,540.89,538.624,0.0
51995.0,STARLINK-3636,PAYLOAD,2022-10-19 21:47:02,15.08841133,0.0001618,53.2163,171.2479,66.3499,293.7663,9.3822e-05,1.206e-05,0.0,0 STARLINK-3636,1 51995U 22025AR  22292.90766716  .00001206  00000-0  93822-4 0  9996,2 51995  53.2163 171.2479 0001618  66.3499 293.7663 15.08841133 34192,6917.877,95.437,540.861,538.623,0.0
51995.0,STARLINK-3636,PAYLOAD,2022-10-20 00:57:48,15.08843477,0.0001624,53.2163,170.6532,67.5572,292.5592,0.0001256,1.712e-05,0.0,0 STARLINK-3636,1 51995U 22025AR  22293.04014463  .00001712  00000-0  12560-3 0  9998,2 51995  53.2163 170.6532 0001624  67.5572 292.5592 15.08843477 35739,6917.87,95.437,540.8580000000002,538.611,0.0
51995.0,STARLINK-3636,PAYLOAD,2022-10-20 15:16:17,15.08835864,0.0001655,53.2161,167.9769,68.1874,291.9294,0.00013394,1.844e-05,0.0,0 STARLINK-3636,1 51995U 22025AR  22293.63630946  .00001844  00000-0  13394-3 0  9995,2 51995  53.2161 167.9769 0001655  68.1874 291.9294 15.08835864 35827,6917.893,95.438,540.903,538.613,0.0
51995.0,STARLINK-3636,PAYLOAD,2022-10-20 20:02:26,15.08837375,0.0001665999999999,53.2163,167.0848,67.9535,292.1634,0.00013718,1.896e-05,0.0,0 STARLINK-3636,1 51995U 22025AR  22293.83502878  .00001896  00000-0  13718-3 0  9996,2 51995  53.2163 167.0848 0001666  67.9535 292.1634 15.08837375 34336,6917.888000000001,95.438,540.906,538.601,0.0
51995.0,STARLINK-3636,PAYLOAD,2022-10-21 08:45:32,15.08836188,0.0001699999999999,53.2169,164.7063,65.8734,294.2436,6.9254e-06,-1.78e-06,0.0,0 STARLINK-3636,1 51995U 22025AR  22294.36495408 -.00000178  00000-0  69254-5 0  9996,2 51995  53.2169 164.7063 0001700  65.8734 294.2436 15.08836188 34415,6917.892,95.438,540.933,538.581,0.0
51995.0,STARLINK-3636,PAYLOAD,2022-10-21 15:07:04,15.08846062,0.0001578,53.2163,163.5165,63.3207,296.7947,-1.6097000000000002e-05,-5.44e-06,0.0,0 STARLINK-3636,1 51995U 22025AR  22294.62990838 -.00000544  00000-0 -16097-4 0  9996,2 51995  53.2163 163.5165 0001578  63.3207 296.7947 15.08846062 34450,6917.861999999999,95.437,540.818,538.635,0.0
51995.0,STARLINK-3636,PAYLOAD,2022-10-22 00:39:22,15.08850223,0.000154,53.2164,161.732,64.8223,295.2928,1.7939000000000002e-05,-2e-08,0.0,0 STARLINK-3636,1 51995U 22025AR  22295.02734210 -.00000002  00000-0  17939-4 0  9995,2 51995  53.2164 161.7320 0001540  64.8223 295.2928 15.08850223 36030,6917.849,95.437,540.779,538.649,0.0
51995.0,STARLINK-3636,PAYLOAD,2022-10-22 08:36:17,15.08849747,0.0001533,53.2163,160.2451,66.9635,293.1519,-2.5247e-06,-3.28e-06,0.0,0 STARLINK-3636,1 51995U 22025AR  22295.35854097 -.00000328  00000-0 -25247-5 0  9991,2 51995  53.2163 160.2451 0001533  66.9635 293.1519 15.08849747 34568,6917.851,95.437,540.776,538.655,0.0
51995.0,STARLINK-3636,PAYLOAD,2022-10-22 21:19:22,15.08849196,0.0001529,53.2161,157.8659,66.3642,293.751,9.77e-06,-1.32e-06,0.0,0 STARLINK-3636,1 51995U 22025AR  22295.88845839 -.00000132  00000-0  97700-5 0  9998,2 51995  53.2161 157.8659 0001529  66.3642 293.7510 15.08849196 34649,6917.852,95.437,540.775,538.66,0.0
51995.0,STARLINK-3636,PAYLOAD,2022-10-23 08:27:03,15.08858683,0.0001537,53.2166,155.7843,68.0811,292.0344,3.2815e-05,2.35e-06,0.0,0 STARLINK-3636,1 51995U 22025AR  22296.35212774  .00000235  00000-0  32815-4 0  9995,2 51995  53.2166 155.7843 0001537  68.0811 292.0344 15.08858683 36237,6917.823,95.436,540.752,538.625,0.0
51995.0,STARLINK-3636,PAYLOAD,2022-10-23 13:13:13,15.08846948,0.000133,53.2186,154.8909,72.1784,287.9353,9.5468e-05,1.232e-05,0.0,0 STARLINK-3636,1 51995U 22025AR  22296.55085134  .00001232  00000-0  95468-4 0  9996,2 51995  53.2186 154.8909 0001330  72.1784 287.9353 15.08846948 36265,6917.859,95.437,540.644,538.804,0.0
51995.0,STARLINK-3636,PAYLOAD,2022-10-23 17:59:23,15.08844508,0.000135,53.2184,153.9989,71.5122,288.6016,7.6271e-05,9.26e-06,0.0,0 STARLINK-3636,1 51995U 22025AR  22296.74957276  .00000926  00000-0  76271-4 0  9992,2 51995  53.2184 153.9989 0001350  71.5122 288.6016 15.08844508 34770,6917.8669999999975,95.437,540.6659999999998,538.798,0.0
51995.0,STARLINK-3636,PAYLOAD,2022-10-24 00:20:56,15.08842192,0.0001419999999999,53.2167,152.8104,68.1891,291.9252,-3.7039e-05,-8.77e-06,0.0,0 STARLINK-3636,1 51995U 22025AR  22297.01453720 -.00000877  00000-0 -37039-4 0  9994,2 51995  53.2167 152.8104 0001420  68.1891 291.9252 15.08842192 36331,6917.874,95.437,540.721,538.756,0.0
51995.0,STARLINK-3636,PAYLOAD,2022-10-24 14:39:25,15.08826995,0.0001248,53.2168,150.1332,70.2177,289.895,-5.376600000000001e-05,-1.143e-05,0.0,0 STARLINK-3636,1 51995U 22025AR  22297.61070713 -.00001143  00000-0 -53766-4 0  9999,2 51995  53.2168 150.1332 0001248  70.2177 289.8950 15.08826995 34900,6917.92,95.438,540.648,538.922,0.0
51995.0,STARLINK-3636,PAYLOAD,2022-10-25 00:11:43,15.08833707,0.0001414,53.2163,148.3505,65.0696,295.0443,-6.6163e-05,-1.341e-05,0.0,0 STARLINK-3636,1 51995U 22025AR  22298.00814554 -.00001341  00000-0 -66163-4 0  9997,2 51995  53.2163 148.3505 0001414  65.0696 295.0443 15.08833707 34960,6917.9,95.438,540.743,538.786,0.0
51995.0,STARLINK-3636,PAYLOAD,2022-10-25 19:16:21,15.08833496,0.0001406,53.2162,144.7821,64.1544,295.9594,-2.3734e-05,-6.66e-06,0.0,0 STARLINK-3636,1 51995U 22025AR  22298.80302544 -.00000666  00000-0 -23734-4 0  9992,2 51995  53.2162 144.7821 0001406  64.1544 295.9594 15.08833496 35088,6917.9,95.438,540.738,538.793,0.0
51995.0,STARLINK-3636,PAYLOAD,2022-10-26 12:45:37,15.08819014,0.0001375999999999,53.2167,141.5111,60.5171,299.5959,7.9388e-06,-1.62e-06,0.0,0 STARLINK-3636,1 51995U 22025AR  22299.53168066 -.00000162  00000-0  79388-5 0  9999,2 51995  53.2167 141.5111 0001376  60.5171 299.5959 15.08819014 36718,6917.945,95.439,540.761,538.8580000000002,0.0
51995.0,STARLINK-3636,PAYLOAD,2022-10-26 20:42:32,15.08825692,0.0001379,53.2167,140.0244,60.6612,299.4518,2.213e-06,-2.53e-06,0.0,0 STARLINK-3636,1 51995U 22025AR  22299.86288029 -.00000253  00000-0  22130-5 0  9991,2 51995  53.2167 140.0244 0001379  60.6612 299.4518 15.08825692 35249,6917.924,95.438,540.743,538.835,0.0
